<!DOCTYPE html PUBLIC "-//W3C//DTD XHTML 1.0 Strict//EN" "http://www.w3.org/TR/xhtml1/DTD/xhtml1-strict.dtd">
<html xmlns="http://www.w3.org/1999/xhtml">
<head>
<meta http-equiv="Content-Type" content="text/html; charset=iso-8859-1"/>
<title>404 - File Not Found.</title>
<style type="text/css">
<!--
body{margin:0;font-size:.7em;font-family:Verdana, Arial, Helvetica, sans-serif;background:#EEEEEE;}
fieldset{padding:0 15px 10px 15px;}
h1{font-size:2.4em;margin:0;color:#FFF;}
h2{font-size:1.7em;margin:0;color:#CC0000;}
h3{font-size:1.2em;margin:10px 0 0 0;color:#000000;}
#header{width:96%;margin:0 0 0 0;padding:6px 2% 6px 2%;font-family:"trebuchet MS", Verdana, sans-serif;color:#FFF;
background-color:#555555;}
#content{margin:0 0 0 2%;position:relative;}
.content-container{background:#FFF;width:96%;margin-top:8px;padding:10px;position:relative;}
-->
</style>
</head>
<body>
<div id="header"><h1>Server Error</h1></div>
<div id="content">
 <div class="content-container"><fieldset>
  <h2>404 - File Not Found.</h2>
  <h3>File not found for celestrak.org/NORAD/elements/active.txt.</h3>
  <h3>Please contact <a href="mailto:ts.kelso@celestrak.org">ts.kelso@celestrak.org</a> if you have other questions.</h3>
 </fieldset></div>
</div>
</body>
</html>
ARCCUBE 1 (RS25S)       
1 57205U 23091AR  24018.17645246  .00014770  00000+0  93396-3 0  9995
2 57205  97.6339  72.4715 0010810 268.8379  91.1611 15.09074534 30805
KUZGTU 1 (RS47S)        
1 57217U 23091AV  24018.13440561  .00008694  00000+0  59963-3 0  9997
2 57217  97.6383  71.8477 0016369 272.5127  87.4226 15.05944358 30753
HADES-D (SO-121)        
1 58567U 23174CY  24017.87063059  .00032041  00000+0  16413-2 0  9996
2 58567  97.4747  94.7108 0015672  41.5809 318.6613 15.16414616 10765
NOAA 15                 
1 25338U 98030A   24018.15521784  .00000320  00000+0  15095-3 0  9996
2 25338  98.5859  48.3206 0011105  50.2724 309.9434 14.26474361335908
NOAA 18                 
1 28654U 05018A   24018.18599936  .00000347  00000+0  20943-3 0  9998
2 28654  98.8900  96.3393 0015064 129.6047 230.6457 14.13102597961937
NOAA 19                 
1 33591U 09005A   24018.11658699  .00000294  00000+0  18221-3 0  9996
2 33591  99.0713  72.1722 0013760   2.0149 358.1076 14.12908216770295
METOP-B                 
1 38771U 12049A   24018.19088324  .00000256  00000+0  13706-3 0  9994
2 38771  98.6512  78.6477 0001700 100.7927 259.3442 14.21455541588093
SARAL                   
1 39086U 13009A   24017.91618513  .00000286  00000+0  12213-3 0  9994
2 39086  98.5459 205.1350 0002368  38.1423 321.9928 14.32329734569422
METOP-C                 
1 43689U 18087A   24018.15801134  .00000241  00000+0  13022-3 0  9999
2 43689  98.7031  79.4642 0003229 138.9230 221.2190 14.21496649269666
ANGELS                  
1 44876U 19092D   24018.09769133  .00008641  00000+0  35580-3 0  9995
2 44876  97.4739 206.7384 0011341 127.0481 233.1796 15.24302883226325
GAZELLE                 
1 54023U 22127A   24017.92726265  .00000390  00000+0  13181-3 0  9999
2 54023  98.3356  15.6496 0012785 332.7393  27.3124 14.41980578 67328
EOS-6 (OCEANSAT-3)      
1 54361U 22158A   24018.20329620  .00000781  00000+0  22665-3 0  9995
2 54361  98.3523 117.3071 0001121  94.3742 265.7578 14.46999800 60438
BEIDOU-2 IGSO-1 (C06)   
1 36828U 10036A   24017.85188330 -.00000080  00000+0  00000+0 0  9994
2 36828  54.2467 170.9376 0038911 192.2027 168.9489  1.00270384 49389
BEIDOU-2 G4 (C04)       
1 37210U 10057A   24017.77119795 -.00000108  00000+0  00000+0 0  9994
2 37210   1.4858  65.9918 0007540 194.2113 294.1720  1.00271716 48457
BEIDOU-2 IGSO-2 (C07)   
1 37256U 10068A   24017.68799403 -.00000198  00000+0  00000+0 0  9995
2 37256  49.1563 282.6640 0031752 214.1949 332.4051  1.00298543 47954
BEIDOU-2 IGSO-3 (C08)   
1 37384U 11013A   24017.02202063 -.00000177  00000+0  00000+0 0  9994
2 37384  61.1331  48.5801 0028762 183.5753 357.5458  1.00296684 46817
BEIDOU-2 IGSO-4 (C09)   
1 37763U 11038A   24017.89077109  .00000021  00000+0  00000+0 0  9995
2 37763  54.5543 173.5184 0117376 226.5280 131.1935  1.00290168 45800
BEIDOU-2 IGSO-5 (C10)   
1 37948U 11073A   24017.68275899 -.00000152  00000+0  00000+0 0  9998
2 37948  49.2858 282.3425 0094060 220.8554 313.6143  1.00285343 44296
BEIDOU-2 G5 (C05)       
1 38091U 12008A   24017.87410491  .00000059  00000+0  00000+0 0  9992
2 38091   2.0360  70.3414 0009157 217.6137 202.2327  1.00274734 43533
BEIDOU-2 M3 (C11)       
1 38250U 12018A   24017.51123344 -.00000092  00000+0  00000+0 0  9997
2 38250  56.4357 334.3861 0024414 266.3767  93.3413  1.86231115 79524
BEIDOU-2 M4 (C12)       
1 38251U 12018B   24017.44209562 -.00000092  00000+0  00000+0 0  9997
2 38251  56.3446 333.6715 0015426 271.4574  88.3636  1.86231872 79878
BEIDOU-2 M6 (C14)       
1 38775U 12050B   24017.15177172 -.00000041  00000+0  00000+0 0  9997
2 38775  55.7925  92.2495 0012316 327.9927  31.9772  1.86230944 76883
BEIDOU-2 G6 (C02)       
1 38953U 12059A   24018.11416539 -.00000172  00000+0  00000+0 0  9999
2 38953   2.1747  81.4860 0009211 289.0769 231.4676  1.00274538 41219
BEIDOU-3S IGSO-1S (C31) 
1 40549U 15019A   24017.79313910 -.00000193  00000+0  00000+0 0  9997
2 40549  50.8527 305.9779 0035514 194.9740 356.6871  1.00282264 32223
BEIDOU-3S M2S (C58)     
1 40748U 15037A   24017.10668046 -.00000090  00000+0  00000+0 0  9992
2 40748  55.5809 332.1986 0011572 263.9460  95.9213  1.86232935 57690
BEIDOU-3S M1S (C57)     
1 40749U 15037B   24017.91387811 -.00000096  00000+0  00000+0 0  9996
2 40749  55.5837 332.1578 0006922 324.0619  35.8893  1.86232836 57706
BEIDOU-3S IGSO-2S (C56) 
1 40938U 15053A   24017.60469617 -.00000107  00000+0  00000+0 0  9998
2 40938  50.5932 269.1737 0046153 191.7705 325.9662  1.00252427 30519
BEIDOU-2 IGSO-6 (C13)   
1 41434U 16021A   24017.54323698 -.00000145  00000+0  00000+0 0  9999
2 41434  58.9477  46.8823 0049541 225.2962 133.0614  1.00256626 28635
BEIDOU-2 G7 (C03)       
1 41586U 16037A   24018.04776705 -.00000350  00000+0  00000+0 0  9999
2 41586   1.5459  67.2503 0009264 315.5744 221.8774  1.00273262 27949
BEIDOU-3 M1 (C19)       
1 43001U 17069A   24017.45492126 -.00000044  00000+0  00000+0 0  9995
2 43001  55.9437  92.3157 0010400 291.0348  68.8974  1.86231116 42188
BEIDOU-3 M2 (C20)       
1 43002U 17069B   24017.39187126 -.00000043  00000+0  00000+0 0  9999
2 43002  55.9429  92.3541 0007654 311.9108  48.0677  1.86230952 42176
BEIDOU-3 M7 (C27)       
1 43107U 18003A   24017.14195522 -.00000092  00000+0  00000+0 0  9990
2 43107  55.0383 332.8548 0003647  45.3657 314.6628  1.86232172 40921
BEIDOU-3 M8 (C28)       
1 43108U 18003B   24017.08115410 -.00000091  00000+0  00000+0 0  9991
2 43108  55.0315 332.8432 0004522 274.4042  85.5431  1.86230709 40936
BEIDOU-3 M4 (C22)       
1 43207U 18018A   24015.37515946 -.00000019  00000+0  00000+0 0  9995
2 43207  55.9010  92.4798 0004369 336.5421  23.4878  1.86231012 40283
BEIDOU-3 M3 (C21)       
1 43208U 18018B   24017.05261880 -.00000039  00000+0  00000+0 0  9990
2 43208  55.9016  92.4278 0007851 300.0201  59.9469  1.86231214 40312
BEIDOU-3 M9 (C29)       
1 43245U 18029A   24017.27477441 -.00000092  00000+0  00000+0 0  9998
2 43245  54.9274 330.5720 0001884 298.1601  61.8208  1.86232249 39474
BEIDOU-3 M10 (C30)      
1 43246U 18029B   24017.20462667 -.00000092  00000+0  00000+0 0  9996
2 43246  54.9244 330.6030 0004812 350.5398   9.4510  1.86232533 39455
BEIDOU-2 IGSO-7 (C16)   
1 43539U 18057A   24010.86206958 -.00000075  00000+0  00000+0 0  9997
2 43539  55.1290 170.7303 0064938 228.9651 129.2611  1.00244014 20237
BEIDOU-3 M5 (C23)       
1 43581U 18062A   24016.88861489  .00000093  00000+0  00000+0 0  9993
2 43581  54.1537 212.3225 0001667 350.8479   9.1737  1.86228472 37200
BEIDOU-3 M6 (C24)       
1 43582U 18062B   24016.75515053  .00000092  00000+0  00000+0 0  9992
2 43582  54.1534 212.3167 0007159  40.0890 319.9884  1.86229444 37205
BEIDOU-3 M12 (C26)      
1 43602U 18067A   24016.15324515  .00000089  00000+0  00000+0 0  9991
2 43602  54.2426 211.0049 0008219  30.9286 329.1424  1.86231502 36670
BEIDOU-3 M11 (C25)      
1 43603U 18067B   24016.82404270  .00000094  00000+0  00000+0 0  9999
2 43603  54.2395 210.9474 0004914  28.4323 331.6168  1.86231430 36716
BEIDOU-3 M13 (C32)      
1 43622U 18072A   24017.32071179 -.00000043  00000+0  00000+0 0  9995
2 43622  55.8725  91.9505 0007148 284.6778  75.2873  1.86231031 36233
BEIDOU-3 M14 (C33)      
1 43623U 18072B   24016.64921622 -.00000034  00000+0  00000+0 0  9997
2 43623  55.8738  91.9659 0004382 305.1707  54.8351  1.86231034 36211
BEIDOU-3 M16 (C35)      
1 43647U 18078A   24017.34957129 -.00000093  00000+0  00000+0 0  9993
2 43647  54.8234 330.6810 0007824   4.0447 355.9612  1.86232085 35748
BEIDOU-3 M15 (C34)      
1 43648U 18078B   24015.33088030 -.00000079  00000+0  00000+0 0  9991
2 43648  54.8207 330.7540 0004698   5.1312 354.8743  1.86231936 35713
BEIDOU-3 G1 (C59)       
1 43683U 18085A   24017.98206486 -.00000274  00000+0  00000+0 0  9995
2 43683   1.8285 116.3468 0001851 331.3141 162.7631  1.00274532 19213
BEIDOU-3 M17 (C36)      
1 43706U 18093A   24016.01614439  .00000087  00000+0  00000+0 0  9995
2 43706  54.2365 212.2795 0006214 294.8155  65.1449  1.86228065 35096
BEIDOU-3 M18 (C37)      
1 43707U 18093B   24015.88268897  .00000086  00000+0  00000+0 0  9992
2 43707  54.2373 212.2758 0006123 336.2989  23.6981  1.86229591 35084
BEIDOU-3 IGSO-1 (C38)   
1 44204U 19023A   23359.85561811 -.00000224  00000+0  00000+0 0  9993
2 44204  57.3835  47.0551 0023834 204.1671 266.3544  1.00248909 17270
BEIDOU-2 G8 (C01)       
1 44231U 19027A   24017.98302212 -.00000245  00000+0  00000+0 0  9994
2 44231   1.5758  72.6273 0004223 180.8460   1.7896  1.00267757 17236
